     3.03           N: GNSS NAV DATA    M: Mixed            RINEX VERSION / TYPE
sbp2rinex v2.2 (RTKL                    20210504 171531 UTC PGM / RUN BY / DATE 
log: 202104022040-202104022130.sbp                          COMMENT             
format: Swift Navigation SBP, option: CONVBASE,EPHALL,OBSALLCOMMENT             
                                                            END OF HEADER       
G 1 2021  4  2 22  0  0  .726192723960E-03 -.943600753089E-11  .000000000000E+00
      .116000000000E+03 -.832500000000E+02  .406195491101E-08  .120429203825E+01
     -.421516597271E-05  .106351717841E-01  .743195414543E-05  .515368838882E+04
      .511200000000E+06 -.117346644402E-06 -.243769638766E+01  .115483999252E-06
      .983897746170E+00  .252406250000E+03  .825801077335E+00 -.798140388608E-08
     -.134648465792E-09  .200000000000E+01  .215100000000E+04  .100000000000E+01
      .280000000000E+01  .000000000000E+00  .465661287308E-08  .116000000000E+03
      .506511000000E+06  .400000000000E+01
G28 2021  4  2 21 59 44  .592729076743E-03 -.568434188608E-11  .000000000000E+00
      .160000000000E+02  .950000000000E+02  .410981404739E-08 -.215817924010E+01
      .527501106262E-05  .177572083194E-01  .592134892941E-05  .515367375374E+04
      .511184000000E+06  .158324837685E-06  .183563470356E+01  .286847352982E-06
      .973174019758E+00  .268968750000E+03 -.134543578625E+01 -.774103673097E-08
      .150006248362E-09  .200000000000E+01  .215100000000E+04  .100000000000E+01
      .200000000000E+01  .000000000000E+00 -.111758708954E-07  .160000000000E+02
      .506522000000E+06  .400000000000E+01
G28 2021  4  2 22  0  0  .592735130340E-03 -.568434188608E-11  .000000000000E+00
      .122000000000E+03  .950000000000E+02  .410981404739E-08 -.215584546298E+01
      .527501106262E-05  .177572143730E-01  .592134892941E-05  .515367375565E+04
      .511200000000E+06  .158324837685E-06  .183563458214E+01  .286847352982E-06
      .973174021221E+00  .268968750000E+03 -.134543582721E+01 -.774103673097E-08
      .150006248362E-09  .200000000000E+01  .215100000000E+04  .100000000000E+01
      .400000000000E+01  .000000000000E+00 -.111758708954E-07  .122000000000E+03
      .506526000000E+06  .400000000000E+01
G 1 2021  4  2 21 59 44  .726192258298E-03 -.943600753089E-11  .000000000000E+00
      .100000000000E+01 -.832500000000E+02  .406195491101E-08  .120195794368E+01
     -.421516597271E-05  .106351688737E-01  .743195414543E-05  .515368838882E+04
      .511184000000E+06 -.117346644402E-06 -.243769624868E+01  .115483999252E-06
      .983897724227E+00  .252406250000E+03  .825801428436E+00 -.798140388608E-08
     -.134648465792E-09  .200000000000E+01  .215100000000E+04  .100000000000E+01
      .200000000000E+01  .000000000000E+00  .465661287308E-08  .100000000000E+01
      .506527000000E+06  .400000000000E+01
G 1 2021  4  2 22  0  0  .726192723960E-03 -.943600753089E-11  .000000000000E+00
      .116000000000E+03 -.832500000000E+02  .406195491101E-08  .120429203825E+01
     -.421516597271E-05  .106351717841E-01  .743195414543E-05  .515368838882E+04
      .511200000000E+06 -.117346644402E-06 -.243769638766E+01  .115483999252E-06
      .983897746170E+00  .252406250000E+03  .825801077335E+00 -.798140388608E-08
     -.134648465792E-09  .200000000000E+01  .215100000000E+04  .100000000000E+01
      .280000000000E+01  .000000000000E+00  .465661287308E-08  .116000000000E+03
      .506531000000E+06  .400000000000E+01
G28 2021  4  2 21 59 44  .592729076743E-03 -.568434188608E-11  .000000000000E+00
      .160000000000E+02  .950000000000E+02  .410981404739E-08 -.215817924010E+01
      .527501106262E-05  .177572083194E-01  .592134892941E-05  .515367375374E+04
      .511184000000E+06  .158324837685E-06  .183563470356E+01  .286847352982E-06
      .973174019758E+00  .268968750000E+03 -.134543578625E+01 -.774103673097E-08
      .150006248362E-09  .200000000000E+01  .215100000000E+04  .100000000000E+01
      .200000000000E+01  .000000000000E+00 -.111758708954E-07  .160000000000E+02
      .506539000000E+06  .400000000000E+01
G28 2021  4  2 22  0  0  .592735130340E-03 -.568434188608E-11  .000000000000E+00
      .122000000000E+03  .950000000000E+02  .410981404739E-08 -.215584546298E+01
      .527501106262E-05  .177572143730E-01  .592134892941E-05  .515367375565E+04
      .511200000000E+06  .158324837685E-06  .183563458214E+01  .286847352982E-06
      .973174021221E+00  .268968750000E+03 -.134543582721E+01 -.774103673097E-08
      .150006248362E-09  .200000000000E+01  .215100000000E+04  .100000000000E+01
      .400000000000E+01  .000000000000E+00 -.111758708954E-07  .122000000000E+03
      .506541000000E+06  .400000000000E+01
G28 2021  4  2 21 59 44  .592729076743E-03 -.568434188608E-11  .000000000000E+00
      .160000000000E+02  .950000000000E+02  .410981404739E-08 -.215817924010E+01
      .527501106262E-05  .177572083194E-01  .592134892941E-05  .515367375374E+04
      .511184000000E+06  .158324837685E-06  .183563470356E+01  .286847352982E-06
      .973174019758E+00  .268968750000E+03 -.134543578625E+01 -.774103673097E-08
      .150006248362E-09  .200000000000E+01  .215100000000E+04  .100000000000E+01
      .200000000000E+01  .000000000000E+00 -.111758708954E-07  .160000000000E+02
      .506554000000E+06  .400000000000E+01
G28 2021  4  2 22  0  0  .592735130340E-03 -.568434188608E-11  .000000000000E+00
      .122000000000E+03  .950000000000E+02  .410981404739E-08 -.215584546298E+01
      .527501106262E-05  .177572143730E-01  .592134892941E-05  .515367375565E+04
      .511200000000E+06  .158324837685E-06  .183563458214E+01  .286847352982E-06
      .973174021221E+00  .268968750000E+03 -.134543582721E+01 -.774103673097E-08
      .150006248362E-09  .200000000000E+01  .215100000000E+04  .100000000000E+01
      .400000000000E+01  .000000000000E+00 -.111758708954E-07  .122000000000E+03
      .506556000000E+06  .400000000000E+01
G 1 2021  4  2 21 59 44  .726192258298E-03 -.943600753089E-11  .000000000000E+00
      .100000000000E+01 -.832500000000E+02  .406195491101E-08  .120195794368E+01
     -.421516597271E-05  .106351688737E-01  .743195414543E-05  .515368838882E+04
      .511184000000E+06 -.117346644402E-06 -.243769624868E+01  .115483999252E-06
      .983897724227E+00  .252406250000E+03  .825801428436E+00 -.798140388608E-08
     -.134648465792E-09  .200000000000E+01  .215100000000E+04  .100000000000E+01
      .200000000000E+01  .000000000000E+00  .465661287308E-08  .100000000000E+01
      .506559000000E+06  .400000000000E+01
G 1 2021  4  2 22  0  0  .726192723960E-03 -.943600753089E-11  .000000000000E+00
      .116000000000E+03 -.832500000000E+02  .406195491101E-08  .120429203825E+01
     -.421516597271E-05  .106351717841E-01  .743195414543E-05  .515368838882E+04
      .511200000000E+06 -.117346644402E-06 -.243769638766E+01  .115483999252E-06
      .983897746170E+00  .252406250000E+03  .825801077335E+00 -.798140388608E-08
     -.134648465792E-09  .200000000000E+01  .215100000000E+04  .100000000000E+01
      .280000000000E+01  .000000000000E+00  .465661287308E-08  .116000000000E+03
      .506560000000E+06  .400000000000E+01
G28 2021  4  2 21 59 44  .592729076743E-03 -.568434188608E-11  .000000000000E+00
      .160000000000E+02  .950000000000E+02  .410981404739E-08 -.215817924010E+01
      .527501106262E-05  .177572083194E-01  .592134892941E-05  .515367375374E+04
      .511184000000E+06  .158324837685E-06  .183563470356E+01  .286847352982E-06
      .973174019758E+00  .268968750000E+03 -.134543578625E+01 -.774103673097E-08
      .150006248362E-09  .200000000000E+01  .215100000000E+04  .100000000000E+01
      .200000000000E+01  .000000000000E+00 -.111758708954E-07  .160000000000E+02
      .506586000000E+06  .400000000000E+01
G28 2021  4  2 22  0  0  .592735130340E-03 -.568434188608E-11  .000000000000E+00
      .122000000000E+03  .950000000000E+02  .410981404739E-08 -.215584546298E+01
      .527501106262E-05  .177572143730E-01  .592134892941E-05  .515367375565E+04
      .511200000000E+06  .158324837685E-06  .183563458214E+01  .286847352982E-06
      .973174021221E+00  .268968750000E+03 -.134543582721E+01 -.774103673097E-08
      .150006248362E-09  .200000000000E+01  .215100000000E+04  .100000000000E+01
      .400000000000E+01  .000000000000E+00 -.111758708954E-07  .122000000000E+03
      .506591000000E+06  .400000000000E+01
G 1 2021  4  2 21 59 44  .726192258298E-03 -.943600753089E-11  .000000000000E+00
      .100000000000E+01 -.832500000000E+02  .406195491101E-08  .120195794368E+01
     -.421516597271E-05  .106351688737E-01  .743195414543E-05  .515368838882E+04
      .511184000000E+06 -.117346644402E-06 -.243769624868E+01  .115483999252E-06
      .983897724227E+00  .252406250000E+03  .825801428436E+00 -.798140388608E-08
     -.134648465792E-09  .200000000000E+01  .215100000000E+04  .100000000000E+01
      .200000000000E+01  .000000000000E+00  .465661287308E-08  .100000000000E+01
      .506591000000E+06  .400000000000E+01
G 1 2021  4  2 22  0  0  .726192723960E-03 -.943600753089E-11  .000000000000E+00
      .116000000000E+03 -.832500000000E+02  .406195491101E-08  .120429203825E+01
     -.421516597271E-05  .106351717841E-01  .743195414543E-05  .515368838882E+04
      .511200000000E+06 -.117346644402E-06 -.243769638766E+01  .115483999252E-06
      .983897746170E+00  .252406250000E+03  .825801077335E+00 -.798140388608E-08
     -.134648465792E-09  .200000000000E+01  .215100000000E+04  .100000000000E+01
      .280000000000E+01  .000000000000E+00  .465661287308E-08  .116000000000E+03
      .506596000000E+06  .400000000000E+01
